{
  "type": "FeatureCollection",
  "features": [
    {
      "type": "Feature",
      "properties": {
        "norad_id": 25590,
        "name": "COSMOS 2361",
        "group": "musson",
        "lat": -3.1716540798299815,
        "lon": 171.99678843494456,
        "alt_km": 999.6388398027839,
        "timestamp": "2025-12-02T13:52:17.531856+00:00",
        "meta_object_name": "COSMOS 2361",
        "meta_object_id": "1998-076A",
        "meta_epoch": "2025-12-02T07:47:17.995776",
        "meta_mean_motion": 13.73215765,
        "meta_eccentricity": 0.00301807,
        "meta_inclination": 82.9342,
        "meta_ra_of_asc_node": 351.7904,
        "meta_arg_of_pericenter": 295.832,
        "meta_mean_anomaly": 75.2409,
        "meta_ephemeris_type": 0,
        "meta_classification_type": "U",
        "meta_norad_cat_id": 25590,
        "meta_element_set_no": 999,
        "meta_rev_at_epoch": 34968,
        "meta_bstar": 8.5996359e-05,
        "meta_mean_motion_dot": 9.5e-07,
        "meta_mean_motion_ddot": 0,
        "tle_line1": "1 25590U 98076A   25336.32451384  .00000095  00000+0  85996-4 0  9994",
        "tle_line2": "2 25590  82.9342 351.7904 0030180 295.8320  75.2409 13.73215765349688"
      },
      "geometry": {
        "type": "Point",
        "coordinates": [
          171.99678843494456,
          -3.1716540798299815
        ]
      }
    },
    {
      "type": "Feature",
      "properties": {
        "norad_id": 26818,
        "name": "COSMOS 2378",
        "group": "musson",
        "lat": -41.8643199517744,
        "lon": -166.35304810470828,
        "alt_km": 968.3274489345058,
        "timestamp": "2025-12-02T13:52:17.531878+00:00",
        "meta_object_name": "COSMOS 2378",
        "meta_object_id": "2001-023A",
        "meta_epoch": "2025-12-02T04:22:06.895200",
        "meta_mean_motion": 13.74140493,
        "meta_eccentricity": 0.00318705,
        "meta_inclination": 82.9281,
        "meta_ra_of_asc_node": 7.5536,
        "meta_arg_of_pericenter": 235.0573,
        "meta_mean_anomaly": 189.5288,
        "meta_ephemeris_type": 0,
        "meta_classification_type": "U",
        "meta_norad_cat_id": 26818,
        "meta_element_set_no": 999,
        "meta_rev_at_epoch": 22778,
        "meta_bstar": 5.6404329e-05,
        "meta_mean_motion_dot": 6.8e-07,
        "meta_mean_motion_ddot": 0,
        "tle_line1": "1 26818U 01023A   25336.18202425  .00000068  00000+0  56404-4 0  9990",
        "tle_line2": "2 26818  82.9281   7.5536 0031870 235.0573 189.5288 13.74140493227780"
      },
      "geometry": {
        "type": "Point",
        "coordinates": [
          -166.35304810470828,
          -41.8643199517744
        ]
      }
    },
    {
      "type": "Feature",
      "properties": {
        "norad_id": 27436,
        "name": "COSMOS 2389",
        "group": "musson",
        "lat": 31.371391276389144,
        "lon": -41.164169866647406,
        "alt_km": 959.8344376767654,
        "timestamp": "2025-12-02T13:52:17.531897+00:00",
        "meta_object_name": "COSMOS 2389",
        "meta_object_id": "2002-026A",
        "meta_epoch": "2025-12-02T07:17:52.880928",
        "meta_mean_motion": 13.75152958,
        "meta_eccentricity": 0.00477897,
        "meta_inclination": 82.9494,
        "meta_ra_of_asc_node": 314.7111,
        "meta_arg_of_pericenter": 89.0764,
        "meta_mean_anomaly": 27.9378,
        "meta_ephemeris_type": 0,
        "meta_classification_type": "U",
        "meta_norad_cat_id": 27436,
        "meta_element_set_no": 999,
        "meta_rev_at_epoch": 18005,
        "meta_bstar": 7.0274636e-05,
        "meta_mean_motion_dot": 8.3e-07,
        "meta_mean_motion_ddot": 0,
        "tle_line1": "1 27436U 02026A   25336.30408427  .00000083  00000+0  70275-4 0  9994",
        "tle_line2": "2 27436  82.9494 314.7111 0047789  89.0764  27.9378 13.75152958180053"
      },
      "geometry": {
        "type": "Point",
        "coordinates": [
          -41.164169866647406,
          31.371391276389144
        ]
      }
    },
    {
      "type": "Feature",
      "properties": {
        "norad_id": 27818,
        "name": "COSMOS 2398",
        "group": "musson",
        "lat": 81.74833380697872,
        "lon": -21.20582170893354,
        "alt_km": 969.3884244252158,
        "timestamp": "2025-12-02T13:52:17.531909+00:00",
        "meta_object_name": "COSMOS 2398",
        "meta_object_id": "2003-023A",
        "meta_epoch": "2025-12-02T07:12:06.105024",
        "meta_mean_motion": 13.72384156,
        "meta_eccentricity": 0.00321763,
        "meta_inclination": 82.9473,
        "meta_ra_of_asc_node": 280.3919,
        "meta_arg_of_pericenter": 139.8419,
        "meta_mean_anomaly": 13.9082,
        "meta_ephemeris_type": 0,
        "meta_classification_type": "U",
        "meta_norad_cat_id": 27818,
        "meta_element_set_no": 999,
        "meta_rev_at_epoch": 12673,
        "meta_bstar": 4.218453e-05,
        "meta_mean_motion_dot": 5.4e-07,
        "meta_mean_motion_ddot": 0,
        "tle_line1": "1 27818U 03023A   25336.30007066  .00000054  00000+0  42185-4 0  9997",
        "tle_line2": "2 27818  82.9473 280.3919 0032176 139.8419  13.9082 13.72384156126739"
      },
      "geometry": {
        "type": "Point",
        "coordinates": [
          -21.20582170893354,
          81.74833380697872
        ]
      }
    },
    {
      "type": "Feature",
      "properties": {
        "norad_id": 28380,
        "name": "COSMOS 2407",
        "group": "musson",
        "lat": 40.90259768694071,
        "lon": 34.271818168684305,
        "alt_km": 957.0748069166748,
        "timestamp": "2025-12-02T13:52:17.531920+00:00",
        "meta_object_name": "COSMOS 2407",
        "meta_object_id": "2004-028A",
        "meta_epoch": "2025-12-02T05:02:02.311872",
        "meta_mean_motion": 13.76311785,
        "meta_eccentricity": 0.00405538,
        "meta_inclination": 82.9615,
        "meta_ra_of_asc_node": 220.6883,
        "meta_arg_of_pericenter": 83.3867,
        "meta_mean_anomaly": 31.4092,
        "meta_ephemeris_type": 0,
        "meta_classification_type": "U",
        "meta_norad_cat_id": 28380,
        "meta_element_set_no": 999,
        "meta_rev_at_epoch": 7278,
        "meta_bstar": 7.6000487e-05,
        "meta_mean_motion_dot": 9e-07,
        "meta_mean_motion_ddot": 0,
        "tle_line1": "1 28380U 04028A   25336.20974898  .00000090  00000+0  76000-4 0  9996",
        "tle_line2": "2 28380  82.9615 220.6883 0040553  83.3867  31.4092 13.76311785 72780"
      },
      "geometry": {
        "type": "Point",
        "coordinates": [
          34.271818168684305,
          40.90259768694071
        ]
      }
    },
    {
      "type": "Feature",
      "properties": {
        "norad_id": 28521,
        "name": "COSMOS 2414",
        "group": "musson",
        "lat": -21.562254997085226,
        "lon": -170.45968899600828,
        "alt_km": 970.2526969202772,
        "timestamp": "2025-12-02T13:52:17.531931+00:00",
        "meta_object_name": "COSMOS 2414",
        "meta_object_id": "2005-002A",
        "meta_epoch": "2025-12-02T01:51:55.001952",
        "meta_mean_motion": 13.87900714,
        "meta_eccentricity": 0.00402355,
        "meta_inclination": 82.9498,
        "meta_ra_of_asc_node": 192.7216,
        "meta_arg_of_pericenter": 169.6825,
        "meta_mean_anomaly": 190.5174,
        "meta_ephemeris_type": 0,
        "meta_classification_type": "U",
        "meta_norad_cat_id": 28521,
        "meta_element_set_no": 999,
        "meta_rev_at_epoch": 5647,
        "meta_bstar": 7.4875061e-05,
        "meta_mean_motion_dot": 1.05e-06,
        "meta_mean_motion_ddot": 0,
        "tle_line1": "1 28521U 05002A   25336.07771993  .00000105  00000+0  74875-4 0  9997",
        "tle_line2": "2 28521  82.9498 192.7216 0040235 169.6825 190.5174 13.87900714 56478"
      },
      "geometry": {
        "type": "Point",
        "coordinates": [
          -170.45968899600828,
          -21.562254997085226
        ]
      }
    },
    {
      "type": "Feature",
      "properties": {
        "norad_id": 32052,
        "name": "COSMOS 2429",
        "group": "musson",
        "lat": -38.21257959625997,
        "lon": 176.36694804824913,
        "alt_km": 1013.524210935082,
        "timestamp": "2025-12-02T13:52:17.531941+00:00",
        "meta_object_name": "COSMOS 2429",
        "meta_object_id": "2007-038A",
        "meta_epoch": "2025-12-02T04:05:03.059520",
        "meta_mean_motion": 13.75147806,
        "meta_eccentricity": 0.00396643,
        "meta_inclination": 82.9805,
        "meta_ra_of_asc_node": 351.1012,
        "meta_arg_of_pericenter": 66.5943,
        "meta_mean_anomaly": 293.9377,
        "meta_ephemeris_type": 0,
        "meta_classification_type": "U",
        "meta_norad_cat_id": 32052,
        "meta_element_set_no": 999,
        "meta_rev_at_epoch": 91457,
        "meta_bstar": 6.4843176e-05,
        "meta_mean_motion_dot": 7.8e-07,
        "meta_mean_motion_ddot": 0,
        "tle_line1": "1 32052U 07038A   25336.17017430  .00000078  00000+0  64843-4 0  9995",
        "tle_line2": "2 32052  82.9805 351.1012 0039664  66.5943 293.9377 13.75147806914578"
      },
      "geometry": {
        "type": "Point",
        "coordinates": [
          176.36694804824913,
          -38.21257959625997
        ]
      }
    },
    {
      "type": "Feature",
      "properties": {
        "norad_id": 35635,
        "name": "COSMOS 2454",
        "group": "musson",
        "lat": -45.27760671859057,
        "lon": 169.17578439364206,
        "alt_km": 948.0724363264817,
        "timestamp": "2025-12-02T13:52:17.531952+00:00",
        "meta_object_name": "COSMOS 2454",
        "meta_object_id": "2009-039A",
        "meta_epoch": "2025-12-02T08:00:39.716064",
        "meta_mean_motion": 13.89926588,
        "meta_eccentricity": 0.0020473,
        "meta_inclination": 82.9557,
        "meta_ra_of_asc_node": 176.533,
        "meta_arg_of_pericenter": 101.5475,
        "meta_mean_anomaly": 71.7976,
        "meta_ephemeris_type": 0,
        "meta_classification_type": "U",
        "meta_norad_cat_id": 35635,
        "meta_element_set_no": 999,
        "meta_rev_at_epoch": 83005,
        "meta_bstar": 7.5897585e-05,
        "meta_mean_motion_dot": 1.1e-06,
        "meta_mean_motion_ddot": 0,
        "tle_line1": "1 35635U 09039A   25336.33379301  .00000110  00000+0  75898-4 0  9993",
        "tle_line2": "2 35635  82.9557 176.5330 0020473 101.5475  71.7976 13.89926588830056"
      },
      "geometry": {
        "type": "Point",
        "coordinates": [
          169.17578439364206,
          -45.27760671859057
        ]
      }
    },
    {
      "type": "Feature",
      "properties": {
        "norad_id": 36519,
        "name": "COSMOS 2463",
        "group": "musson",
        "lat": -56.944673570337336,
        "lon": 23.23737715159208,
        "alt_km": 975.6810909814158,
        "timestamp": "2025-12-02T13:52:17.531963+00:00",
        "meta_object_name": "COSMOS 2463",
        "meta_object_id": "2010-017A",
        "meta_epoch": "2025-12-02T07:29:43.261728",
        "meta_mean_motion": 13.71647725,
        "meta_eccentricity": 0.00351319,
        "meta_inclination": 82.9622,
        "meta_ra_of_asc_node": 34.3746,
        "meta_arg_of_pericenter": 317.9509,
        "meta_mean_anomaly": 113.4537,
        "meta_ephemeris_type": 0,
        "meta_classification_type": "U",
        "meta_norad_cat_id": 36519,
        "meta_element_set_no": 999,
        "meta_rev_at_epoch": 78094,
        "meta_bstar": 7.1296305e-05,
        "meta_mean_motion_dot": 7.9e-07,
        "meta_mean_motion_ddot": 0,
        "tle_line1": "1 36519U 10017A   25336.31230627  .00000079  00000+0  71296-4 0  9990",
        "tle_line2": "2 36519  82.9622  34.3746 0035131 317.9509 113.4537 13.71647725780944"
      },
      "geometry": {
        "type": "Point",
        "coordinates": [
          23.23737715159208,
          -56.944673570337336
        ]
      }
    }
  ]
}